OBJECT_NAME,OBJECT_ID,EPOCH,MEAN_MOTION,ECCENTRICITY,INCLINATION,RA_OF_ASC_NODE,ARG_OF_PERICENTER,MEAN_ANOMALY,EPHEMERIS_TYPE,CLASSIFICATION_TYPE,NORAD_CAT_ID,ELEMENT_SET_NO,REV_AT_EPOCH,BSTAR,MEAN_MOTION_DOT,MEAN_MOTION_DDOT
STARLINK-3989,2022-052AJ,2026-06-27T22:00:01.999584,15.27126138,.00016319,53.1615,133.3851,117.5620,108.3753,0,U,52630,999,579,.41294546E-1,.1213009E-1,0
STARLINK-3794,2022-052AK,2026-06-27T22:00:01.999584,15.12507797,.0001378,53.1597,134.1183,130.4620,155.2367,0,U,52631,999,574,.20503254E-2,.35998E-3,0
STARLINK-3995,2022-052AL,2026-06-27T21:02:12.042528,15.08821187,.00013097,53.1612,134.3129,90.9678,269.1464,0,U,52632,999,22763,.31035152E-4,.206E-5,0
STARLINK-3994,2022-052AM,2026-06-27T14:08:52.020672,15.08829075,.00014336,53.1597,135.6035,91.4753,268.6403,0,U,52633,999,22759,-.1028353E-5,-.304E-5,0
STARLINK-3974,2022-052AN,2026-06-27T20:51:36.259488,15.08832523,.00012887,53.1606,134.3758,91.5369,268.5770,0,U,52634,999,22762,.45109388E-4,.43E-5,0
STARLINK-3978,2022-052AP,2026-06-27T22:00:01.999584,15.14097208,.00022536,53.1594,124.0857,57.1161,40.7063,0,U,52635,999,555,.33435408E-2,.61808E-3,0
STARLINK-3967,2022-052AQ,2026-06-27T20:41:00.251808,15.08831858,.00018048,53.1598,134.3800,82.7839,277.3358,0,U,52636,999,22762,.52548157E-4,.548E-5,0
STARLINK-3961,2022-052AR,2026-06-27T22:00:01.999584,15.15451198,.00024939,53.1594,124.0527,79.3560,56.0821,0,U,52637,999,570,.32888339E-2,.63182E-3,0
STARLINK-3941,2022-052AS,2026-06-27T22:00:01.999584,15.18540908,.00017272,53.1611,133.8672,72.0462,23.6353,0,U,52638,999,579,.21223561E-2,.44322E-3,0
STARLINK-3968,2022-052AT,2026-06-27T21:19:25.035744,15.08825859,.00019034,53.1620,124.2632,103.2698,256.8506,0,U,52639,999,22857,-.6701764E-5,-.395E-5,0
STARLINK-3977,2022-052AU,2026-06-27T20:10:32.231712,15.08835575,.00014694,53.1606,124.5043,90.1083,270.0077,0,U,52640,999,22775,.40200311E-4,.352E-5,0
STARLINK-3991,2022-052AV,2026-06-27T22:00:01.999584,15.18803696,.00023329,53.1600,124.1430,88.7038,79.6060,0,U,52641,999,570,.31538641E-2,.66729E-3,0
STARLINK-3971,2022-052AW,2026-06-27T04:00:46.846368,15.08828754,.00015867,53.1601,127.5021,86.8871,273.2302,0,U,52642,999,22765,.10559048E-4,-.12E-5,0
STARLINK-3963,2022-052AX,2026-06-27T22:00:01.999584,15.14720141,.00015396,53.1611,124.0435,145.6479,134.0592,0,U,52643,999,574,.3546787E-2,.66794E-3,0
STARLINK-3985,2022-052AY,2026-06-27T13:27:47.489184,15.08834399,.00012501,53.1599,125.7312,86.2827,273.8307,0,U,52644,999,22771,-.4322288E-5,-.357E-5,0
STARLINK-3973,2022-052AZ,2026-06-27T22:00:01.999584,15.19551626,.00010688,53.1606,123.8798,77.3008,302.1402,0,U,52645,999,579,.13972566E-2,.29879E-3,0
STARLINK-3832,2022-052BA,2026-06-27T13:17:12.189984,15.08829877,.00013184,53.1592,125.8032,90.3375,269.7767,0,U,52646,999,22772,.2987221E-5,-.24E-5,0
STARLINK-3854,2022-052BC,2026-06-27T21:03:31.579776,15.08827226,.0001292,53.1596,124.3088,90.6853,269.4287,0,U,52648,999,22776,-.8181139E-5,-.418E-5,0
STARLINK-3868,2022-052BD,2026-06-27T22:00:01.999584,15.15204258,.00008628,53.1597,123.9099,42.7450,349.3481,0,U,52649,999,574,.32778995E-2,.62522E-3,0
STARLINK-3891,2022-052BE,2026-06-27T03:46:13.427904,15.08836059,.00015273,53.1604,117.6539,92.5581,267.5585,0,U,52650,999,22780,-.46946897E-4,-.1035E-4,0
STARLINK-4004,2022-053A,2026-06-27T20:23:09.909600,15.08834120,.00012021,53.1606,19.4446,85.3426,274.7702,0,U,52656,999,22774,-.43876613E-4,-.986E-5,0
STARLINK-4084,2022-053B,2026-06-27T22:00:01.999584,15.19804783,.00006998,53.1594,19.2036,155.2270,140.4387,0,U,52657,999,580,.43945317E-2,.96241E-3,0
STARLINK-4082,2022-053C,2026-06-27T20:27:05.172480,15.08834710,.00010616,53.1608,19.4229,87.3430,272.7683,0,U,52658,999,22786,-.33567807E-4,-.822E-5,0
STARLINK-3960,2022-053D,2026-06-27T18:46:23.599776,15.08828215,.00012175,53.1604,19.6878,93.7166,266.3964,0,U,52659,999,22784,.40102173E-4,.35E-5,0
STARLINK-4081,2022-053E,2026-06-27T22:00:01.999584,15.16882762,.00019509,53.1605,19.0122,59.0472,35.5773,0,U,52660,999,580,.46220566E-2,.93009E-3,0
STARLINK-4044,2022-053G,2026-06-27T20:00:35.407296,15.08837164,.00015856,53.1605,19.5065,92.2865,267.8308,0,U,52662,999,22767,-.2327038E-5,-.325E-5,0
STARLINK-4037,2022-053H,2026-06-27T19:55:17.503680,15.08834971,.00013935,53.1615,19.5275,88.2231,271.8920,0,U,52663,999,22767,.2516794E-5,-.248E-5,0
STARLINK-4070,2022-053J,2026-06-27T20:05:53.367072,15.08831843,.00012746,53.1600,19.4888,88.5536,271.5602,0,U,52664,999,22767,.26540644E-4,.134E-5,0
STARLINK-4064,2022-053K,2026-06-27T22:50:10.063104,15.08835429,.0001365,53.1614,18.9785,89.2767,270.8381,0,U,52665,999,22769,.77692611E-4,.949E-5,0
STARLINK-4079,2022-053L,2026-06-27T22:07:42.423456,15.08833487,.00012172,53.1605,18.7244,88.8111,271.3020,0,U,52666,999,22769,-.15104033E-4,-.528E-5,0
