STARLINK-3989           
1 52630U 22052AJ  26178.91668981  .01213009  00000+0  41295-1 0  9996
2 52630  53.1615 133.3851 0001631 117.5620 108.3753 15.27126138  5790
STARLINK-3794           
1 52631U 22052AK  26178.91668981  .00035998  00000+0  20503-2 0  9995
2 52631  53.1597 134.1183 0001378 130.4620 155.2367 15.12507797  5744
STARLINK-3995           
1 52632U 22052AL  26178.87652827  .00000206  00000+0  31035-4 0  9991
2 52632  53.1612 134.3129 0001309  90.9678 269.1464 15.08821187227636
STARLINK-3994           
1 52633U 22052AM  26178.58949098 -.00000304  00000+0 -10284-5 0  9994
2 52633  53.1597 135.6035 0001433  91.4753 268.6403 15.08829075227593
STARLINK-3974           
1 52634U 22052AN  26178.86916967  .00000430  00000+0  45109-4 0  9996
2 52634  53.1606 134.3758 0001288  91.5369 268.5770 15.08832523227627
STARLINK-3978           
1 52635U 22052AP  26178.91668981  .00061808  00000+0  33435-2 0  9996
2 52635  53.1594 124.0857 0002253  57.1161  40.7063 15.14097208  5552
STARLINK-3967           
1 52636U 22052AQ  26178.86180847  .00000548  00000+0  52548-4 0  9993
2 52636  53.1598 134.3800 0001804  82.7839 277.3358 15.08831858227625
STARLINK-3961           
1 52637U 22052AR  26178.91668981  .00063182  00000+0  32888-2 0  9996
2 52637  53.1594 124.0527 0002493  79.3560  56.0821 15.15451198  5705
STARLINK-3941           
1 52638U 22052AS  26178.91668981  .00044322  00000+0  21224-2 0  9994
2 52638  53.1611 133.8672 0001727  72.0462  23.6353 15.18540908  5795
STARLINK-3968           
1 52639U 22052AT  26178.88848421 -.00000395  00000+0 -67018-5 0  9998
2 52639  53.1620 124.2632 0001903 103.2698 256.8506 15.08825859228573
STARLINK-3977           
1 52640U 22052AU  26178.84065083  .00000352  00000+0  40200-4 0  9995
2 52640  53.1606 124.5043 0001469  90.1083 270.0077 15.08835575227753
STARLINK-3991           
1 52641U 22052AV  26178.91668981  .00066729  00000+0  31539-2 0  9993
2 52641  53.1600 124.1430 0002332  88.7038  79.6060 15.18803696  5701
STARLINK-3971           
1 52642U 22052AW  26178.16720887 -.00000120  00000+0  10559-4 0  9990
2 52642  53.1601 127.5021 0001586  86.8871 273.2302 15.08828754227652
STARLINK-3963           
1 52643U 22052AX  26178.91668981  .00066794  00000+0  35468-2 0  9992
2 52643  53.1611 124.0435 0001539 145.6479 134.0592 15.14720141  5748
STARLINK-3985           
1 52644U 22052AY  26178.56096631 -.00000357  00000+0 -43223-5 0  9997
2 52644  53.1599 125.7312 0001250  86.2827 273.8307 15.08834399227716
STARLINK-3973           
1 52645U 22052AZ  26178.91668981  .00029879  00000+0  13973-2 0  9994
2 52645  53.1606 123.8798 0001068  77.3008 302.1402 15.19551626  5797
STARLINK-3832           
1 52646U 22052BA  26178.55361331 -.00000240  00000+0  29872-5 0  9994
2 52646  53.1592 125.8032 0001318  90.3375 269.7767 15.08829877227720
STARLINK-3854           
1 52648U 22052BC  26178.87744884 -.00000418  00000+0 -81811-5 0  9998
2 52648  53.1596 124.3088 0001292  90.6853 269.4287 15.08827226227760
STARLINK-3868           
1 52649U 22052BD  26178.91668981  .00062522  00000+0  32779-2 0  9995
2 52649  53.1597 123.9099 0000862  42.7450 349.3481 15.15204258  5740
STARLINK-3891           
1 52650U 22052BE  26178.15709986 -.00001035  00000+0 -46947-4 0  9992
2 52650  53.1604 117.6539 0001527  92.5581 267.5585 15.08836059227808
STARLINK-4004           
1 52656U 22053A   26178.84942025 -.00000986  00000+0 -43877-4 0  9991
2 52656  53.1606  19.4446 0001202  85.3426 274.7702 15.08834120227741
STARLINK-4084           
1 52657U 22053B   26178.91668981  .00096241  00000+0  43945-2 0  9997
2 52657  53.1594  19.2036 0000699 155.2270 140.4387 15.19804783  5807
STARLINK-4082           
1 52658U 22053C   26178.85214320 -.00000822  00000+0 -33568-4 0  9999
2 52658  53.1608  19.4229 0001061  87.3430 272.7683 15.08834710227868
STARLINK-3960           
1 52659U 22053D   26178.78221759  .00000350  00000+0  40102-4 0  9992
2 52659  53.1604  19.6878 0001217  93.7166 266.3964 15.08828215227849
STARLINK-4081           
1 52660U 22053E   26178.91668981  .00093009  00000+0  46221-2 0  9990
2 52660  53.1605  19.0122 0001950  59.0472  35.5773 15.16882762  5807
STARLINK-4044           
1 52662U 22053G   26178.83374314 -.00000325  00000+0 -23270-5 0  9990
2 52662  53.1605  19.5065 0001585  92.2865 267.8308 15.08837164227671
STARLINK-4037           
1 52663U 22053H   26178.83006370 -.00000248  00000+0  25168-5 0  9996
2 52663  53.1615  19.5275 0001393  88.2231 271.8920 15.08834971227673
STARLINK-4070           
1 52664U 22053J   26178.83742323  .00000134  00000+0  26541-4 0  9990
2 52664  53.1600  19.4888 0001274  88.5536 271.5602 15.08831843227675
STARLINK-4064           
1 52665U 22053K   26178.95150536  .00000949  00000+0  77693-4 0  9991
2 52665  53.1614  18.9785 0001365  89.2767 270.8381 15.08835429227698
STARLINK-4079           
1 52666U 22053L   26178.92201879 -.00000528  00000+0 -15104-4 0  9990
2 52666  53.1605  18.7244 0001217  88.8111 271.3020 15.08833487227699
